CCSDS_OMM_VERS = 2.0
CREATION_DATE  = 
ORIGINATOR     = 

OBJECT_NAME    = QIANFAN 18T
OBJECT_ID      = 2025-233T
CENTER_NAME    = EARTH
REF_FRAME      = TEME
TIME_SYSTEM    = UTC
MEAN_ELEMENT_THEORY = SGP/SGP4

EPOCH          = 2025-10-29T23:16:05.649312
MEAN_MOTION    = 14.26507388
ECCENTRICITY   = .00153089
INCLINATION    = 88.9941
RA_OF_ASC_NODE = 67.0690
ARG_OF_PERICENTER = 171.9479
MEAN_ANOMALY   = 188.1964

EPHEMERIS_TYPE = 0
CLASSIFICATION_TYPE = U
NORAD_CAT_ID   = 66050
ELEMENT_SET_NO = 999
REV_AT_EPOCH   = 180
BSTAR          = .28942964E-3
MEAN_MOTION_DOT = .712E-5
MEAN_MOTION_DDOT = 0

CCSDS_OMM_VERS = 2.0
CREATION_DATE  = 
ORIGINATOR     = 

OBJECT_NAME    = CZ-6A R/B
OBJECT_ID      = 2025-233U
CENTER_NAME    = EARTH
REF_FRAME      = TEME
TIME_SYSTEM    = UTC
MEAN_ELEMENT_THEORY = SGP/SGP4

EPOCH          = 2025-10-29T23:33:03.381696
MEAN_MOTION    = 14.57006867
ECCENTRICITY   = .00861329
INCLINATION    = 89.0280
RA_OF_ASC_NODE = 67.0081
ARG_OF_PERICENTER = 76.0859
MEAN_ANOMALY   = 284.9913

EPHEMERIS_TYPE = 0
CLASSIFICATION_TYPE = U
NORAD_CAT_ID   = 66051
ELEMENT_SET_NO = 999
REV_AT_EPOCH   = 184
BSTAR          = .17269218E-4
MEAN_MOTION_DOT = .101E-5
MEAN_MOTION_DDOT = 0

CCSDS_OMM_VERS = 2.0
CREATION_DATE  = 
ORIGINATOR     = 

OBJECT_NAME    = 2025-234A
OBJECT_ID      = 2025-234A
CENTER_NAME    = EARTH
REF_FRAME      = TEME
TIME_SYSTEM    = UTC
MEAN_ELEMENT_THEORY = SGP/SGP4

EPOCH          = 2025-10-31T19:36:03.756096
MEAN_MOTION    = 15.22144758
ECCENTRICITY   = .0014413
INCLINATION    = 97.4621
RA_OF_ASC_NODE = 10.3857
ARG_OF_PERICENTER = 241.8117
MEAN_ANOMALY   = 118.1664

EPHEMERIS_TYPE = 0
CLASSIFICATION_TYPE = U
NORAD_CAT_ID   = 66053
ELEMENT_SET_NO = 999
REV_AT_EPOCH   = 193
BSTAR          = .15247E-2
MEAN_MOTION_DOT = .35123E-3
MEAN_MOTION_DDOT = 0

CCSDS_OMM_VERS = 2.0
CREATION_DATE  = 
ORIGINATOR     = 

OBJECT_NAME    = 2025-234B
OBJECT_ID      = 2025-234B
CENTER_NAME    = EARTH
REF_FRAME      = TEME
TIME_SYSTEM    = UTC
MEAN_ELEMENT_THEORY = SGP/SGP4

EPOCH          = 2025-10-31T19:43:24.936960
MEAN_MOTION    = 15.21115843
ECCENTRICITY   = .001382
INCLINATION    = 97.5049
RA_OF_ASC_NODE = 10.4439
ARG_OF_PERICENTER = 233.9443
MEAN_ANOMALY   = 126.0513

EPHEMERIS_TYPE = 0
CLASSIFICATION_TYPE = U
NORAD_CAT_ID   = 66054
ELEMENT_SET_NO = 999
REV_AT_EPOCH   = 193
BSTAR          = .42725E-3
MEAN_MOTION_DOT = .9464E-4
MEAN_MOTION_DDOT = 0

CCSDS_OMM_VERS = 2.0
CREATION_DATE  = 
ORIGINATOR     = 

OBJECT_NAME    = 2025-234C
OBJECT_ID      = 2025-234C
CENTER_NAME    = EARTH
REF_FRAME      = TEME
TIME_SYSTEM    = UTC
MEAN_ELEMENT_THEORY = SGP/SGP4

EPOCH          = 2025-10-31T19:42:13.955040
MEAN_MOTION    = 15.21289439
ECCENTRICITY   = .0014471
INCLINATION    = 97.4573
RA_OF_ASC_NODE = 10.3724
ARG_OF_PERICENTER = 236.1880
MEAN_ANOMALY   = 123.7978

EPHEMERIS_TYPE = 0
CLASSIFICATION_TYPE = U
NORAD_CAT_ID   = 66055
ELEMENT_SET_NO = 999
REV_AT_EPOCH   = 193
BSTAR          = .31905E-3
MEAN_MOTION_DOT = .7085E-4
MEAN_MOTION_DDOT = 0

CCSDS_OMM_VERS = 2.0
CREATION_DATE  = 
ORIGINATOR     = 

OBJECT_NAME    = 2025-234D
OBJECT_ID      = 2025-234D
CENTER_NAME    = EARTH
REF_FRAME      = TEME
TIME_SYSTEM    = UTC
MEAN_ELEMENT_THEORY = SGP/SGP4

EPOCH          = 2025-10-31T19:41:14.054784
MEAN_MOTION    = 15.21570322
ECCENTRICITY   = .0014577
INCLINATION    = 97.4552
RA_OF_ASC_NODE = 10.3700
ARG_OF_PERICENTER = 234.9448
MEAN_ANOMALY   = 125.0421

EPHEMERIS_TYPE = 0
CLASSIFICATION_TYPE = U
NORAD_CAT_ID   = 66056
ELEMENT_SET_NO = 999
REV_AT_EPOCH   = 192
BSTAR          = .1034E-2
MEAN_MOTION_DOT = .23362E-3
MEAN_MOTION_DDOT = 0

CCSDS_OMM_VERS = 2.0
CREATION_DATE  = 
ORIGINATOR     = 

OBJECT_NAME    = 2025-234E
OBJECT_ID      = 2025-234E
CENTER_NAME    = EARTH
REF_FRAME      = TEME
TIME_SYSTEM    = UTC
MEAN_ELEMENT_THEORY = SGP/SGP4

EPOCH          = 2025-10-22T03:39:05.023008
MEAN_MOTION    = 15.21126112
ECCENTRICITY   = .00221527
INCLINATION    = 97.5441
RA_OF_ASC_NODE = 0.7365
ARG_OF_PERICENTER = 241.6098
MEAN_ANOMALY   = 118.2904

EPHEMERIS_TYPE = 0
CLASSIFICATION_TYPE = U
NORAD_CAT_ID   = 66057
ELEMENT_SET_NO = 999
REV_AT_EPOCH   = 46
BSTAR          = .33848292E-3
MEAN_MOTION_DOT = .7512E-4
MEAN_MOTION_DDOT = 0

CCSDS_OMM_VERS = 2.0
CREATION_DATE  = 
ORIGINATOR     = 

OBJECT_NAME    = STARLINK-35552
OBJECT_ID      = 2025-235A
CENTER_NAME    = EARTH
REF_FRAME      = TEME
TIME_SYSTEM    = UTC
MEAN_ELEMENT_THEORY = SGP/SGP4

EPOCH          = 2025-10-31T19:39:11.390112
MEAN_MOTION    = 15.81850981
ECCENTRICITY   = .0000718
INCLINATION    = 53.1503
RA_OF_ASC_NODE = 128.6555
ARG_OF_PERICENTER = 28.8896
MEAN_ANOMALY   = 331.2166

EPHEMERIS_TYPE = 0
CLASSIFICATION_TYPE = U
NORAD_CAT_ID   = 66058
ELEMENT_SET_NO = 999
REV_AT_EPOCH   = 312
BSTAR          = -.24208E-2
MEAN_MOTION_DOT = -.474251E-2
MEAN_MOTION_DDOT = 0

CCSDS_OMM_VERS = 2.0
CREATION_DATE  = 
ORIGINATOR     = 

OBJECT_NAME    = STARLINK-35560
OBJECT_ID      = 2025-235B
CENTER_NAME    = EARTH
REF_FRAME      = TEME
TIME_SYSTEM    = UTC
MEAN_ELEMENT_THEORY = SGP/SGP4

EPOCH          = 2025-10-31T18:06:49.709664
MEAN_MOTION    = 15.82131740
ECCENTRICITY   = .0000795
INCLINATION    = 53.1516
RA_OF_ASC_NODE = 128.9670
ARG_OF_PERICENTER = 257.0177
MEAN_ANOMALY   = 103.0757

EPHEMERIS_TYPE = 0
CLASSIFICATION_TYPE = U
NORAD_CAT_ID   = 66059
ELEMENT_SET_NO = 999
REV_AT_EPOCH   = 311
BSTAR          = -.78378E-2
MEAN_MOTION_DOT = -.145377E-1
MEAN_MOTION_DDOT = 0

CCSDS_OMM_VERS = 2.0
CREATION_DATE  = 
ORIGINATOR     = 

OBJECT_NAME    = STARLINK-35558
OBJECT_ID      = 2025-235C
CENTER_NAME    = EARTH
REF_FRAME      = TEME
TIME_SYSTEM    = UTC
MEAN_ELEMENT_THEORY = SGP/SGP4

EPOCH          = 2025-10-31T18:06:14.727168
MEAN_MOTION    = 15.82131792
ECCENTRICITY   = .0002173
INCLINATION    = 53.1507
RA_OF_ASC_NODE = 128.9621
ARG_OF_PERICENTER = 344.2120
MEAN_ANOMALY   = 15.8835

EPHEMERIS_TYPE = 0
CLASSIFICATION_TYPE = U
NORAD_CAT_ID   = 66060
ELEMENT_SET_NO = 999
REV_AT_EPOCH   = 311
BSTAR          = -.73209E-2
MEAN_MOTION_DOT = -.1343517E-1
MEAN_MOTION_DDOT = 0

CCSDS_OMM_VERS = 2.0
CREATION_DATE  = 
ORIGINATOR     = 

OBJECT_NAME    = STARLINK-35566
OBJECT_ID      = 2025-235D
CENTER_NAME    = EARTH
REF_FRAME      = TEME
TIME_SYSTEM    = UTC
MEAN_ELEMENT_THEORY = SGP/SGP4

EPOCH          = 2025-10-31T18:06:16.050816
MEAN_MOTION    = 15.81956566
ECCENTRICITY   = .0002144
INCLINATION    = 53.1507
RA_OF_ASC_NODE = 128.9638
ARG_OF_PERICENTER = 3.6661
MEAN_ANOMALY   = 356.4377

EPHEMERIS_TYPE = 0
CLASSIFICATION_TYPE = U
NORAD_CAT_ID   = 66061
ELEMENT_SET_NO = 999
REV_AT_EPOCH   = 311
BSTAR          = -.23855E-2
MEAN_MOTION_DOT = -.470076E-2
MEAN_MOTION_DDOT = 0

CCSDS_OMM_VERS = 2.0
CREATION_DATE  = 
ORIGINATOR     = 

OBJECT_NAME    = STARLINK-35421
OBJECT_ID      = 2025-235E
CENTER_NAME    = EARTH
REF_FRAME      = TEME
TIME_SYSTEM    = UTC
MEAN_ELEMENT_THEORY = SGP/SGP4

EPOCH          = 2025-10-31T18:04:23.615040
MEAN_MOTION    = 15.87849806
ECCENTRICITY   = .0031321
INCLINATION    = 53.1541
RA_OF_ASC_NODE = 128.9564
ARG_OF_PERICENTER = 288.3023
MEAN_ANOMALY   = 71.4595

EPHEMERIS_TYPE = 0
CLASSIFICATION_TYPE = U
NORAD_CAT_ID   = 66062
ELEMENT_SET_NO = 999
REV_AT_EPOCH   = 311
BSTAR          = .33318E-1
MEAN_MOTION_DOT = .7348102E-1
MEAN_MOTION_DDOT = .79828E-1

CCSDS_OMM_VERS = 2.0
CREATION_DATE  = 
ORIGINATOR     = 

OBJECT_NAME    = STARLINK-35562
OBJECT_ID      = 2025-235F
CENTER_NAME    = EARTH
REF_FRAME      = TEME
TIME_SYSTEM    = UTC
MEAN_ELEMENT_THEORY = SGP/SGP4

EPOCH          = 2025-10-31T16:34:03.064800
MEAN_MOTION    = 15.82070311
ECCENTRICITY   = .0003761
INCLINATION    = 53.1507
RA_OF_ASC_NODE = 129.2746
ARG_OF_PERICENTER = 338.0509
MEAN_ANOMALY   = 22.0352

EPHEMERIS_TYPE = 0
CLASSIFICATION_TYPE = U
NORAD_CAT_ID   = 66063
ELEMENT_SET_NO = 999
REV_AT_EPOCH   = 310
BSTAR          = .17673E-2
MEAN_MOTION_DOT = .384902E-2
MEAN_MOTION_DDOT = 0

CCSDS_OMM_VERS = 2.0
CREATION_DATE  = 
ORIGINATOR     = 

OBJECT_NAME    = STARLINK-35542
OBJECT_ID      = 2025-235G
CENTER_NAME    = EARTH
REF_FRAME      = TEME
TIME_SYSTEM    = UTC
MEAN_ELEMENT_THEORY = SGP/SGP4

EPOCH          = 2025-10-31T18:04:25.267008
MEAN_MOTION    = 15.81968806
ECCENTRICITY   = .000443
INCLINATION    = 53.1508
RA_OF_ASC_NODE = 128.9512
ARG_OF_PERICENTER = 331.6215
MEAN_ANOMALY   = 28.4566

EPHEMERIS_TYPE = 0
CLASSIFICATION_TYPE = U
NORAD_CAT_ID   = 66064
ELEMENT_SET_NO = 999
REV_AT_EPOCH   = 311
BSTAR          = .22124E-2
MEAN_MOTION_DOT = .485438E-2
MEAN_MOTION_DDOT = 0

CCSDS_OMM_VERS = 2.0
CREATION_DATE  = 
ORIGINATOR     = 

OBJECT_NAME    = STARLINK-35375
OBJECT_ID      = 2025-235H
CENTER_NAME    = EARTH
REF_FRAME      = TEME
TIME_SYSTEM    = UTC
MEAN_ELEMENT_THEORY = SGP/SGP4

EPOCH          = 2025-10-31T19:34:52.402656
MEAN_MOTION    = 15.81769368
ECCENTRICITY   = .0006514
INCLINATION    = 53.1516
RA_OF_ASC_NODE = 128.6356
ARG_OF_PERICENTER = 348.1347
MEAN_ANOMALY   = 11.9521

EPHEMERIS_TYPE = 0
CLASSIFICATION_TYPE = U
NORAD_CAT_ID   = 66065
ELEMENT_SET_NO = 999
REV_AT_EPOCH   = 312
BSTAR          = .20999E-2
MEAN_MOTION_DOT = .455071E-2
MEAN_MOTION_DDOT = 0

